[
    {
        "CCSDS_OMM_VERS": "3.0",
        "COMMENT": "GENERATED VIA SPACE-TRACK.ORG API",
        "CREATION_DATE": "2025-05-04T02:26:54",
        "ORIGINATOR": "18 SPCS",
        "OBJECT_NAME": "BEIDOU 11",
        "OBJECT_ID": "2012-008A",
        "CENTER_NAME": "EARTH",
        "REF_FRAME": "TEME",
        "TIME_SYSTEM": "UTC",
        "MEAN_ELEMENT_THEORY": "SGP4",
        "EPOCH": "2025-05-03T23:11:50.593920",
        "MEAN_MOTION": "1.00268624",
        "ECCENTRICITY": "0.00107600",
        "INCLINATION": "2.5560",
        "RA_OF_ASC_NODE": "71.2559",
        "ARG_OF_PERICENTER": "264.9991",
        "MEAN_ANOMALY": "292.5104",
        "EPHEMERIS_TYPE": "0",
        "CLASSIFICATION_TYPE": "U",
        "NORAD_CAT_ID": "38091",
        "ELEMENT_SET_NO": "999",
        "REV_AT_EPOCH": "4826",
        "BSTAR": "0.00000000000000",
        "MEAN_MOTION_DOT": "0.00000048",
        "MEAN_MOTION_DDOT": "0.0000000000000",
        "SEMIMAJOR_AXIS": "42165.618",
        "PERIOD": "1436.142",
        "APOAPSIS": "35832.853",
        "PERIAPSIS": "35742.113",
        "OBJECT_TYPE": "PAYLOAD",
        "RCS_SIZE": "LARGE",
        "COUNTRY_CODE": "PRC",
        "LAUNCH_DATE": "2012-02-24",
        "SITE": "XSC",
        "DECAY_DATE": null,
        "FILE": "4718307",
        "GP_ID": "286796003",
        "TLE_LINE0": "0 BEIDOU 11",
        "TLE_LINE1": "1 38091U 12008A   25123.96655780  .00000048  00000-0  00000-0 0  9993",
        "TLE_LINE2": "2 38091   2.5560  71.2559 0010760 264.9991 292.5104  1.00268624 48266"
    }
]